ORBCOMM FM37            
1 33064U 08031E   25221.37109551  .00001263  00000+0  19344-3 0  9996
2 33064  48.4402  90.7685 0005563 244.7126 285.4717 14.79914832921925
ORBCOMM FM40            
1 33065U 08031F   25222.07216344  .00001947  00000+0  26838-3 0  9999
2 33065  48.4424  70.5610 0006713 259.8942 240.0241 14.82218431922594
VESSELSAT 1             
1 37840U 11058C   25221.40789736  .00000336  00000+0  38583-4 0  9995
2 37840  19.9612 131.8447 0013695  52.5077 307.6571 14.11361712713838
ORBCOMM FM109           
1 40086U 14040A   25221.42334164  .00000540  00000+0  15234-3 0  9992
2 40086  47.0031 124.8563 0001941 244.7886 115.2798 14.58238329588838
ORBCOMM FM107           
1 40087U 14040B   25221.44931494  .00000497  00000+0  14277-3 0  9991
2 40087  47.0047 125.6776 0000836 196.4952 163.5906 14.58312333588914
ORBCOMM FM106           
1 40088U 14040C   25222.21661710  .00000867  00000+0  17591-3 0  9992
2 40088  47.0612 299.8267 0017454 314.8506  45.0967 14.69543705591632
ORBCOMM FM111           
1 40089U 14040D   25221.52094703  .00003345  00000+0  39507-3 0  9993
2 40089  47.0008 146.1148 0029531  87.4336 272.9941 14.86535372598165
ORBCOMM FM104           
1 40090U 14040E   25222.18225097  .00000571  00000+0  16431-3 0  9999
2 40090  47.0043 156.4749 0015624  90.3854 269.8821 14.56706369588594
